STARLINK-31953          
1 59898U 24100P   26068.54193809 -.00002433  00000+0 -78926-4 0  9996
2 59898  43.0009 122.8244 0001284 216.3366 143.7398 15.27573178101173
LIME                    
1 62648U 25009AR  26068.73906781  .00013254  00000+0  47723-3 0  9995
2 62648  97.3985 151.4831 0001635  35.9029 324.2320 15.28703313 63766
